KUIPER-00027            
1 63740U 25088S   25212.70942183  .00021374  00000+0  56544-3 0  9992
2 63740  51.8726   4.7102 0001544  84.2887 275.8276 15.38337694 14726
KUIPER-00028            
1 63741U 25088T   25212.70035133  .00021139  00000+0  55787-3 0  9998
2 63741  51.8721   4.6450 0001564  62.8119 297.3028 15.38419610 15138
KUIPER-00029            
1 63742U 25088U   25212.69374066  .00019167  00000+0  52675-3 0  9999
2 63742  51.8706   5.3277 0004838  90.5337 269.6204 15.37224066 14656
KUIPER-00030            
1 63743U 25088V   25212.45158157 -.00004287  00000+0 -22816-3 0  9998
2 63743  51.8873  11.1851 0011288  76.6320 283.5914 15.12128718 14832
KUIPER-00031            
1 63744U 25088W   25212.85519823  .00017103  00000+0  46087-3 0  9999
2 63744  51.8700   4.1721 0003964  86.1176 274.0264 15.37921375 14680
KUIPER-00032            
1 63745U 25088X   25212.91668981  .00056784  00000+0  18661-2 0  9991
2 63745  51.8740   4.2418 0003882  58.0280  93.7736 15.30998065 15686
KUIPER-00033            
1 63746U 25088Y   25212.87281402  .00002382  00000+0  34228-3 0  9999
2 63746  51.9018  23.0549 0003207 152.3956 207.7177 14.79826327 14902
KUIPER-00034            
1 63747U 25088Z   25212.70616585  .00019767  00000+0  52981-3 0  9997
2 63747  51.8718   4.6863 0001596  99.7199 260.3968 15.37984665 14824
